IRIDIUM 921 [-]         
1 24873U 97034E   24014.95402199  .00029121  00000+0  99703-3 0  9992
2 24873  86.3862   3.8525 0008074 105.5175 254.6966 15.30062972451536
IRIDIUM 26 [-]          
1 24903U 97043A   24014.94298534  .00001057  00000+0  35618-3 0  9994
2 24903  86.3980 328.4901 0002266  80.8827 279.2626 14.36160120382191
IRIDIUM 22 [-]          
1 24907U 97043E   24014.94956125  .00000942  00000+0  32371-3 0  9990
2 24907  86.3984 331.6010 0002229  87.0918 273.0533 14.35059836382284
DUMMY MASS 1 [-]        
1 24925U 97048A   24014.93113085  .00000855  00000+0  94648-4 0  9993
2 24925  86.3341  15.2354 0006989 166.0141 194.1278 14.85998975427998
DUMMY MASS 2 [-]        
1 24926U 97048B   24014.94276214  .00000840  00000+0  93483-4 0  9999
2 24926  86.3340  16.7455 0007270 178.7130 181.4114 14.85759349427783
IRIDIUM 29 [-]          
1 24944U 97051A   24014.93147694  .00000917  00000+0  31218-3 0  9993
2 24944  86.3965   1.5502 0002312  93.3641 266.7820 14.35518025378754
IRIDIUM 33 [-]          
1 24946U 97051C   24014.95615129  .00000662  00000+0  22927-3 0  9994
2 24946  86.3880   0.8049 0007262 348.6035  11.4995 14.34225130378302
IRIDIUM 28 [-]          
1 24948U 97051E   24014.89787924  .00000917  00000+0  30621-3 0  9995
2 24948  86.3972 359.3791 0002191  76.4755 283.6686 14.36457449379272
